{"spkid": "54297993", "covariance": {"epoch": "2459548.5", "elements": [{"label": "e", "title": "eccentricity", "value": ".6941577005081138", "units": null, "sigma": 3.78349415946128e-08, "name": "e"}, {"sigma": 7.09888683491722e-08, "name": "q", "units": "au", "title": "perihelion distance", "value": ".5548439953460877", "label": "q"}, {"sigma": 8.60886041433449e-06, "name": "tp", "value": "2459902.491265962031", "title": "time of perihelion passage", "units": "TDB", "label": "tp"}, {"label": "node", "units": "deg", "title": "longitude of the ascending node", "value": "37.49728750754608", "sigma": 3.21687916028601e-05, "name": "om"}, {"value": "69.81286598062255", "title": "argument of perihelion", "units": "deg", "sigma": 2.95130427236074e-05, "name": "w", "label": "peri"}, {"label": "i", "name": "i", "sigma": 7.9056304859967e-06, "units": "deg", "value": "10.71425556472448", "title": "inclination"}], "data": [["1.431482805467762E-15", "-2.684390810636578E-15", "-8.905319239575312E-14", "-2.602434196793776E-14", "2.081962965557698E-13", "-2.466659928893326E-14"], ["-2.684390810636578E-15", "5.039419429496105E-15", "1.58036710498424E-13", "2.774548507773927E-14", "-3.82042153149495E-13", "4.399995143823954E-14"], ["-8.905319239575312E-14", "1.58036710498424E-13", "7.411247763349546E-11", "9.702373450985676E-11", "-3.836659641810745E-11", "1.665269201096054E-11"], ["-2.602434196793776E-14", "2.774548507773927E-14", "9.702373450985676E-11", "1.034831153188245E-9", "-8.983404084358309E-10", "-1.205216317740799E-10"], ["2.081962965557698E-13", "-3.82042153149495E-13", "-3.836659641810745E-11", "-8.983404084358309E-10", "8.710196908054764E-10", "1.33093326194464E-10"], ["-2.466659928893326E-14", "4.399995143823954E-14", "1.665269201096054E-11", "-1.205216317740799E-10", "1.33093326194464E-10", "6.249899338112043E-11"]], "labels": ["e", "q", "tp", "node", "peri", "i"]}, "elements": [{"title": "eccentricity", "value": ".6940363191415441", "units": null, "name": "e", "sigma": "3.7824E-8", "label": "e"}, {"sigma": "1.0751E-8", "name": "a", "title": "semi-major axis", "value": "1.813863000702152", "units": "au", "label": "a"}, {"label": "q", "sigma": "7.0962E-8", "name": "q", "title": "perihelion distance", "value": ".5549762002677945", "units": "au"}, {"label": "i", "name": "i", "sigma": "7.9075E-6", "value": "10.71564598140806", "title": "inclination; angle with respect to x-y ecliptic plane", "units": "deg"}, {"label": "node", "units": "deg", "title": "longitude of the ascending node", "value": "37.4195169837137", "name": "om", "sigma": "3.2159E-5"}, {"title": "argument of perihelion", "value": "69.88765944835846", "units": "deg", "name": "w", "sigma": "2.9511E-5", "label": "peri"}, {"units": "deg", "value": "163.648419367664", "title": "mean anomaly", "sigma": "5.4628E-6", "name": "ma", "label": "M"}, {"label": "tp", "units": "TDB", "value": "2460794.884573162150", "title": "time of perihelion passage", "name": "tp", "sigma": "1.0978E-5"}, {"label": "period", "name": "per", "sigma": "7.9329E-6", "value": "892.2882006795538", "title": "sidereal orbital period", "units": "d"}, {"label": "n", "title": "mean motion", "value": ".4034570890053563", "units": "deg/d", "sigma": "3.587E-9", "name": "n"}, {"units": "au", "title": "aphelion distance", "value": "3.07274980113651", "sigma": "1.8212E-8", "name": "ad", "label": "Q"}], "epoch": "2461200.5"}